{
  "norad_id": 67272,
  "name": "2025-313AA",
  "history": [
    {
      "epoch": "2026-03-28T20:39:41.961312Z",
      "apogee_km": 507.4810085820782,
      "perigee_km": 489.6241711902285,
      "latitude_deg": -4.542262218610049e-05,
      "longitude_deg": 27.640187097806876,
      "height_km": 499.08024814975374,
      "semi_major_axis_km": 6876.689589886153,
      "eccentricity": 0.00129836,
      "inclination_deg": 97.3986,
      "raan_deg": 163.8403,
      "arg_perigee_deg": 286.7517,
      "mean_anomaly_deg": 73.2294,
      "mean_motion_rev_day": 15.2241702
    },
    {
      "epoch": "2026-03-29T04:32:55.916448Z",
      "apogee_km": 507.44041252895295,
      "perigee_km": 489.58450454491685,
      "latitude_deg": -6.745413576281327e-05,
      "longitude_deg": -90.66837261012839,
      "height_km": 499.22434071012214,
      "semi_major_axis_km": 6876.649458536935,
      "eccentricity": 0.0012983,
      "inclination_deg": 97.3985,
      "raan_deg": 164.1638,
      "arg_perigee_deg": 285.5221,
      "mean_anomaly_deg": 74.4581,
      "mean_motion_rev_day": 15.22430347
    }
  ]
}